[{"OBJECT_NAME":"STARLINK-6178","OBJECT_ID":"2023-061P","EPOCH":"2025-10-27T02:17:19.728672","MEAN_MOTION":15.02535879,"ECCENTRICITY":0.00011845,"INCLINATION":43.0037,"RA_OF_ASC_NODE":202.9447,"ARG_OF_PERICENTER":274.0316,"MEAN_ANOMALY":86.0391,"EPHEMERIS_TYPE":0,"CLASSIFICATION_TYPE":"U","NORAD_CAT_ID":56387,"ELEMENT_SET_NO":999,"REV_AT_EPOCH":13666,"BSTAR":2.4326242e-5,"MEAN_MOTION_DOT":1.25e-6,"MEAN_MOTION_DDOT":0},{"OBJECT_NAME":"STARLINK-6176","OBJECT_ID":"2023-061Q","EPOCH":"2025-10-27T01:39:08.393760","MEAN_MOTION":15.02526881,"ECCENTRICITY":0.00011722,"INCLINATION":43.0039,"RA_OF_ASC_NODE":203.5946,"ARG_OF_PERICENTER":264.2317,"MEAN_ANOMALY":95.8392,"EPHEMERIS_TYPE":0,"CLASSIFICATION_TYPE":"U","NORAD_CAT_ID":56388,"ELEMENT_SET_NO":999,"REV_AT_EPOCH":13665,"BSTAR":-2.2914618e-5,"MEAN_MOTION_DOT":-5.13e-6,"MEAN_MOTION_DDOT":0},{"OBJECT_NAME":"STARLINK-6145","OBJECT_ID":"2023-061R","EPOCH":"2025-10-27T02:36:30.409056","MEAN_MOTION":15.02537505,"ECCENTRICITY":0.00011991,"INCLINATION":43.004,"RA_OF_ASC_NODE":203.0418,"ARG_OF_PERICENTER":274.0938,"MEAN_ANOMALY":85.9767,"EPHEMERIS_TYPE":0,"CLASSIFICATION_TYPE":"U","NORAD_CAT_ID":56389,"ELEMENT_SET_NO":999,"REV_AT_EPOCH":13666,"BSTAR":0.00014015813,"MEAN_MOTION_DOT":1.69e-5,"MEAN_MOTION_DDOT":0},{"OBJECT_NAME":"STARLINK-6298","OBJECT_ID":"2023-061T","EPOCH":"2025-10-27T02:26:56.949792","MEAN_MOTION":15.02466513,"ECCENTRICITY":4.978e-5,"INCLINATION":43.0018,"RA_OF_ASC_NODE":202.99,"ARG_OF_PERICENTER":220.2562,"MEAN_ANOMALY":139.8243,"EPHEMERIS_TYPE":0,"CLASSIFICATION_TYPE":"U","NORAD_CAT_ID":56391,"ELEMENT_SET_NO":999,"REV_AT_EPOCH":13666,"BSTAR":0.00095829059,"MEAN_MOTION_DOT":0.00012741,"MEAN_MOTION_DDOT":0},{"OBJECT_NAME":"STARLINK-6301","OBJECT_ID":"2023-061U","EPOCH":"2025-10-27T00:54:55.445472","MEAN_MOTION":15.0256124,"ECCENTRICITY":9.804e-5,"INCLINATION":43.0023,"RA_OF_ASC_NODE":191.2398,"ARG_OF_PERICENTER":272.0951,"MEAN_ANOMALY":87.978,"EPHEMERIS_TYPE":0,"CLASSIFICATION_TYPE":"U","NORAD_CAT_ID":56392,"ELEMENT_SET_NO":999,"REV_AT_EPOCH":13679,"BSTAR":-0.00046690316,"MEAN_MOTION_DOT":-6.509e-5,"MEAN_MOTION_DDOT":0},{"OBJECT_NAME":"STARLINK-6303","OBJECT_ID":"2023-061V","EPOCH":"2025-10-27T02:22:07.544352","MEAN_MOTION":15.0253401,"ECCENTRICITY":0.00014623,"INCLINATION":43.004,"RA_OF_ASC_NODE":202.9667,"ARG_OF_PERICENTER":262.2656,"MEAN_ANOMALY":97.802,"EPHEMERIS_TYPE":0,"CLASSIFICATION_TYPE":"U","NORAD_CAT_ID":56393,"ELEMENT_SET_NO":999,"REV_AT_EPOCH":13666,"BSTAR":0.00016188158,"MEAN_MOTION_DOT":1.984e-5,"MEAN_MOTION_DDOT":0},{"OBJECT_NAME":"STARLINK-6305","OBJECT_ID":"2023-061W","EPOCH":"2025-10-27T00:38:55.480128","MEAN_MOTION":15.02600572,"ECCENTRICITY":0.00014827,"INCLINATION":43.0033,"RA_OF_ASC_NODE":191.1568,"ARG_OF_PERICENTER":270.8088,"MEAN_ANOMALY":89.2585,"EPHEMERIS_TYPE":0,"CLASSIFICATION_TYPE":"U","NORAD_CAT_ID":56394,"ELEMENT_SET_NO":999,"REV_AT_EPOCH":13679,"BSTAR":-0.0009550123,"MEAN_MOTION_DOT":-0.00013103,"MEAN_MOTION_DDOT":0},{"OBJECT_NAME":"STARLINK-6273","OBJECT_ID":"2023-061X","EPOCH":"2025-10-27T02:19:28.326432","MEAN_MOTION":15.02532612,"ECCENTRICITY":0.00011613,"INCLINATION":43.0023,"RA_OF_ASC_NODE":190.819,"ARG_OF_PERICENTER":273.0825,"MEAN_ANOMALY":86.9885,"EPHEMERIS_TYPE":0,"CLASSIFICATION_TYPE":"U","NORAD_CAT_ID":56395,"ELEMENT_SET_NO":999,"REV_AT_EPOCH":13751,"BSTAR":-2.450139e-5,"MEAN_MOTION_DOT":-5.34e-6,"MEAN_MOTION_DDOT":0},{"OBJECT_NAME":"STARLINK-6302","OBJECT_ID":"2023-061Y","EPOCH":"2025-10-27T02:06:40.519872","MEAN_MOTION":15.02540289,"ECCENTRICITY":0.00011637,"INCLINATION":43.0027,"RA_OF_ASC_NODE":190.7563,"ARG_OF_PERICENTER":269.4233,"MEAN_ANOMALY":90.6476,"EPHEMERIS_TYPE":0,"CLASSIFICATION_TYPE":"U","NORAD_CAT_ID":56396,"ELEMENT_SET_NO":999,"REV_AT_EPOCH":13193,"BSTAR":6.2427643e-5,"MEAN_MOTION_DOT":6.4e-6,"MEAN_MOTION_DDOT":0},{"OBJECT_NAME":"STARLINK-6271","OBJECT_ID":"2023-061Z","EPOCH":"2025-10-27T00:46:56.375616","MEAN_MOTION":15.0254134,"ECCENTRICITY":0.00011032,"INCLINATION":43.0021,"RA_OF_ASC_NODE":191.2001,"ARG_OF_PERICENTER":266.9809,"MEAN_ANOMALY":93.0907,"EPHEMERIS_TYPE":0,"CLASSIFICATION_TYPE":"U","NORAD_CAT_ID":56397,"ELEMENT_SET_NO":999,"REV_AT_EPOCH":13679,"BSTAR":-5.9803506e-5,"MEAN_MOTION_DOT":-1.011e-5,"MEAN_MOTION_DDOT":0},{"OBJECT_NAME":"STARLINK-6288","OBJECT_ID":"2023-061AA","EPOCH":"2025-10-27T02:01:52.980672","MEAN_MOTION":15.02537862,"ECCENTRICITY":0.00010781,"INCLINATION":43.0021,"RA_OF_ASC_NODE":190.731,"ARG_OF_PERICENTER":275.5197,"MEAN_ANOMALY":84.5522,"EPHEMERIS_TYPE":0,"CLASSIFICATION_TYPE":"U","NORAD_CAT_ID":56398,"ELEMENT_SET_NO":999,"REV_AT_EPOCH":13680,"BSTAR":2.5085536e-5,"MEAN_MOTION_DOT":1.35e-6,"MEAN_MOTION_DDOT":0},{"OBJECT_NAME":"STARLINK-6277","OBJECT_ID":"2023-061AB","EPOCH":"2025-10-27T00:34:08.687424","MEAN_MOTION":15.0254581,"ECCENTRICITY":9.718e-5,"INCLINATION":43.0029,"RA_OF_ASC_NODE":191.1348,"ARG_OF_PERICENTER":271.9969,"MEAN_ANOMALY":88.0762,"EPHEMERIS_TYPE":0,"CLASSIFICATION_TYPE":"U","NORAD_CAT_ID":56399,"ELEMENT_SET_NO":999,"REV_AT_EPOCH":13679,"BSTAR":-9.3852446e-5,"MEAN_MOTION_DOT":-1.471e-5,"MEAN_MOTION_DDOT":0},{"OBJECT_NAME":"STARLINK-6267","OBJECT_ID":"2023-061AC","EPOCH":"2025-10-27T01:53:53.650752","MEAN_MOTION":15.02537635,"ECCENTRICITY":0.00012709,"INCLINATION":43.0031,"RA_OF_ASC_NODE":190.6874,"ARG_OF_PERICENTER":270.4492,"MEAN_ANOMALY":89.6205,"EPHEMERIS_TYPE":0,"CLASSIFICATION_TYPE":"U","NORAD_CAT_ID":56400,"ELEMENT_SET_NO":999,"REV_AT_EPOCH":13680,"BSTAR":5.7811264e-5,"MEAN_MOTION_DOT":5.77e-6,"MEAN_MOTION_DDOT":0},{"OBJECT_NAME":"STARLINK-6256","OBJECT_ID":"2023-061AD","EPOCH":"2025-10-27T00:21:53.763840","MEAN_MOTION":15.04107677,"ECCENTRICITY":0.00017887,"INCLINATION":42.9996,"RA_OF_ASC_NODE":178.0587,"ARG_OF_PERICENTER":274.0186,"MEAN_ANOMALY":86.0453,"EPHEMERIS_TYPE":0,"CLASSIFICATION_TYPE":"U","NORAD_CAT_ID":56401,"ELEMENT_SET_NO":999,"REV_AT_EPOCH":13694,"BSTAR":0.0010589726,"MEAN_MOTION_DOT":0.00014741,"MEAN_MOTION_DDOT":0},{"OBJECT_NAME":"STARLINK-6284","OBJECT_ID":"2023-061AF","EPOCH":"2025-10-27T00:21:21.864096","MEAN_MOTION":15.02536812,"ECCENTRICITY":0.00011643,"INCLINATION":43.0019,"RA_OF_ASC_NODE":191.0516,"ARG_OF_PERICENTER":267.7459,"MEAN_ANOMALY":92.325,"EPHEMERIS_TYPE":0,"CLASSIFICATION_TYPE":"U","NORAD_CAT_ID":56403,"ELEMENT_SET_NO":999,"REV_AT_EPOCH":13679,"BSTAR":-2.7207988e-5,"MEAN_MOTION_DOT":-5.71e-6,"MEAN_MOTION_DDOT":0},{"OBJECT_NAME":"STARLINK-6287","OBJECT_ID":"2023-061AG","EPOCH":"2025-10-27T01:41:06.670176","MEAN_MOTION":15.02533596,"ECCENTRICITY":0.0001384,"INCLINATION":43.0034,"RA_OF_ASC_NODE":190.6192,"ARG_OF_PERICENTER":268.0896,"MEAN_ANOMALY":91.9788,"EPHEMERIS_TYPE":0,"CLASSIFICATION_TYPE":"U","NORAD_CAT_ID":56404,"ELEMENT_SET_NO":999,"REV_AT_EPOCH":13680,"BSTAR":7.2963427e-5,"MEAN_MOTION_DOT":7.82e-6,"MEAN_MOTION_DDOT":0}]
