STARLINK-6178           
1 56387U 23061P   25300.09536723  .00000125  00000+0  24326-4 0  9994
2 56387  43.0037 202.9447 0001184 274.0316  86.0391 15.02535879136667
STARLINK-6176           
1 56388U 23061Q   25300.06884715 -.00000513  00000+0 -22915-4 0  9994
2 56388  43.0039 203.5946 0001172 264.2317  95.8392 15.02526881136651
STARLINK-6145           
1 56389U 23061R   25300.10868529  .00001690  00000+0  14016-3 0  9992
2 56389  43.0040 203.0418 0001199 274.0938  85.9767 15.02537505136662
STARLINK-6298           
1 56391U 23061T   25300.10204803  .00012741  00000+0  95829-3 0  9994
2 56391  43.0018 202.9900 0000497 220.2562 139.8243 15.02466513136668
STARLINK-6301           
1 56392U 23061U   25300.03814173 -.00006509  00000+0 -46690-3 0  9993
2 56392  43.0023 191.2398 0000980 272.0951  87.9780 15.02561240136796
STARLINK-6303           
1 56393U 23061V   25300.09869843  .00001984  00000+0  16188-3 0  9993
2 56393  43.0040 202.9667 0001462 262.2656  97.8020 15.02534010136662
STARLINK-6305           
1 56394U 23061W   25300.02703102 -.00013103  00000+0 -95501-3 0  9996
2 56394  43.0033 191.1568 0001482 270.8088  89.2585 15.02600572136792
STARLINK-6273           
1 56395U 23061X   25300.09685563 -.00000534  00000+0 -24501-4 0  9991
2 56395  43.0023 190.8190 0001161 273.0825  86.9885 15.02532612137514
STARLINK-6302           
1 56396U 23061Y   25300.08796898  .00000640  00000+0  62428-4 0  9991
2 56396  43.0027 190.7563 0001163 269.4233  90.6476 15.02540289131933
STARLINK-6271           
1 56397U 23061Z   25300.03259694 -.00001011  00000+0 -59804-4 0  9994
2 56397  43.0021 191.2001 0001103 266.9809  93.0907 15.02541340136790
STARLINK-6288           
1 56398U 23061AA  25300.08464098  .00000135  00000+0  25086-4 0  9995
2 56398  43.0021 190.7310 0001078 275.5197  84.5522 15.02537862136809
STARLINK-6277           
1 56399U 23061AB  25300.02371166 -.00001471  00000+0 -93852-4 0  9995
2 56399  43.0029 191.1348 0000971 271.9969  88.0762 15.02545810136797
STARLINK-6267           
1 56400U 23061AC  25300.07909318  .00000577  00000+0  57811-4 0  9998
2 56400  43.0031 190.6874 0001270 270.4492  89.6205 15.02537635136806
STARLINK-6256           
1 56401U 23061AD  25300.01520560  .00014741  00000+0  10590-2 0  9990
2 56401  42.9996 178.0587 0001788 274.0186  86.0453 15.04107677136942
STARLINK-6284           
1 56403U 23061AF  25300.01483639 -.00000571  00000+0 -27208-4 0  9991
2 56403  43.0019 191.0516 0001164 267.7459  92.3250 15.02536812136792
STARLINK-6287           
1 56404U 23061AG  25300.07021609  .00000782  00000+0  72963-4 0  9993
2 56404  43.0034 190.6192 0001384 268.0896  91.9788 15.02533596136807
